{"epoch":1784710044,"count":18256,"objects":[{"id":"40044","name":"LEMUR 1","type":"PAYLOAD","l1":"1 40044U 14033AL  26202.65125124  .00001145  00000-0  13692-3 0  9996","l2":"2 40044  97.7917 351.7008 0047252 326.4372  33.3852 14.85349700650584"},{"id":"42837","name":"LEMUR 2 GREENBERG","type":"PAYLOAD","l1":"1 42837U 17042N   26202.57764573  .00016449  00000-0  52917-3 0  9995","l2":"2 42837  97.3842  23.0726 0007538 233.1870 126.8681 15.32287483493658"},{"id":"42838","name":"LEMUR 2 ANDIS","type":"PAYLOAD","l1":"1 42838U 17042P   26202.45958079  .00017749  00000-0  50615-3 0  9996","l2":"2 42838  97.3694  23.2630 0007577 232.1029 127.9531 15.36092785493714"},{"id":"42839","name":"LEMUR 2 MONSON","type":"PAYLOAD","l1":"1 42839U 17042Q   26202.00747074  .00010789  00000-0  38721-3 0  9990","l2":"2 42839  97.4103  22.4228 0005711 221.0699 139.0112 15.28852397493334"},{"id":"42840","name":"LEMUR 2 FURIAUS","type":"PAYLOAD","l1":"1 42840U 17042R   26202.00668472  .00012240  00000-0  40768-3 0  9994","l2":"2 42840  97.3789  20.3821 0005679 304.6433  55.4272 15.31249211493380"},{"id":"42841","name":"LEMUR 2 PETERG","type":"PAYLOAD","l1":"1 42841U 17042S   26202.46413673  .00016129  00000-0  47413-3 0  9990","l2":"2 42841  97.4006  27.5861 0003798 194.2666 165.8471 15.35181644493698"},{"id":"42842","name":"LEMUR 2 DEMBITZ","type":"PAYLOAD","l1":"1 42842U 17042T   26202.02652405  .00011274  00000-0  37611-3 0  9996","l2":"2 42842  97.3839  23.4497 0005231 247.5353 112.5335 15.31221020493520"},{"id":"42845","name":"LEMUR 2 ZACHARY","type":"PAYLOAD","l1":"1 42845U 17042W   26202.49599283  .00049406  00000-0  78616-3 0  9992","l2":"2 42845  97.3581  34.9343 0002996 217.9840 142.1203 15.53139299494525"},{"id":"48269","name":"LEMUR 2 AMANDA-SVANTE","type":"PAYLOAD","l1":"1 48269U 21034B   26202.63931495  .00033264  00000-0  94118-3 0  9995","l2":"2 48269  97.5740 281.8819 0004761 129.5965 230.5699 15.36228653286343"},{"id":"48273","name":"LEMUR 2 SPECIAL K","type":"PAYLOAD","l1":"1 48273U 21034F   26202.23906829  .00254191  00000-0  15263-2 0  9996","l2":"2 48273  97.5626 291.8762 0006109 210.7980 149.2928 15.77027455287037"},{"id":"56970","name":"LEMUR 2 EMBRIONOVIS","type":"PAYLOAD","l1":"1 56970U 23084AQ  26202.35970605  .00010910  00000-0  29061-3 0  9993","l2":"2 56970  97.6331 347.8997 0008806 183.9306 176.1871 15.38334823172930"},{"id":"57391","name":"LEMUR 2 DEVERILL-M-T","type":"PAYLOAD","l1":"1 57391U 23100F   26202.39870927  .00020567  00000-0  49589-3 0  9996","l2":"2 57391  99.4447 251.0826 0004830 270.9536  89.1151 15.41291410166517"},{"id":"58259","name":"LEMUR 2 BASS","type":"PAYLOAD","l1":"1 58259U 23174D   26202.24278477  .00013243  00000-0  29090-3 0  9995","l2":"2 58259  97.3836 287.4557 0007228  60.0029 300.1936 15.44124123150613"},{"id":"58336","name":"LEMUR 2 JK0903EM1407","type":"PAYLOAD","l1":"1 58336U 23174CJ  26202.49717429  .00026198  00000-0  41647-3 0  9998","l2":"2 58336  97.3916 293.9761 0003002   6.7470 353.3823 15.53295497151057"},{"id":"58340","name":"LEMUR 2 MJR092620","type":"PAYLOAD","l1":"1 58340U 23174CN  26202.40982217  .00015823  00000-0  32577-3 0  9998","l2":"2 58340  97.3965 293.0976 0004714   7.1100 353.0215 15.46011516150939"},{"id":"58899","name":"LEMUR 2 NIMBUS2000","type":"PAYLOAD","l1":"1 58899U 24022A   26202.11193926  .00016730  00000-0  40331-3 0  9994","l2":"2 58899  97.4083  52.5660 0008116   7.9726 352.1648 15.41275158137495"}]}