{"fetched_at":"2026-07-22T07:09:27.047Z","source":"https://celestrak.org/NORAD/elements/gp.php?GROUP=spire&FORMAT=JSON","constellation":"spire","records":[{"OBJECT_NAME":"LEMUR-1","OBJECT_ID":"2014-033AL","EPOCH":"2026-07-21T15:37:48.107136","CLASSIFICATION_TYPE":"U","MEAN_MOTION":14.853497,"ECCENTRICITY":0.00472517,"INCLINATION":97.7917,"RA_OF_ASC_NODE":351.7008,"ARG_OF_PERICENTER":326.4372,"MEAN_ANOMALY":33.3852,"EPHEMERIS_TYPE":0,"NORAD_CAT_ID":40044,"ELEMENT_SET_NO":999,"REV_AT_EPOCH":65058,"BSTAR":0.0001369179,"MEAN_MOTION_DOT":0.00001145,"MEAN_MOTION_DDOT":0},{"OBJECT_NAME":"LEMUR-2-GREENBERG","OBJECT_ID":"2017-042N","EPOCH":"2026-07-21T13:51:48.591072","CLASSIFICATION_TYPE":"U","MEAN_MOTION":15.32287483,"ECCENTRICITY":0.0007538,"INCLINATION":97.3842,"RA_OF_ASC_NODE":23.0726,"ARG_OF_PERICENTER":233.187,"MEAN_ANOMALY":126.8681,"EPHEMERIS_TYPE":0,"NORAD_CAT_ID":42837,"ELEMENT_SET_NO":999,"REV_AT_EPOCH":49365,"BSTAR":0.00052917355,"MEAN_MOTION_DOT":0.00016449,"MEAN_MOTION_DDOT":0},{"OBJECT_NAME":"LEMUR-2-ANDIS","OBJECT_ID":"2017-042P","EPOCH":"2026-07-21T11:01:47.780256","CLASSIFICATION_TYPE":"U","MEAN_MOTION":15.36092785,"ECCENTRICITY":0.00075768,"INCLINATION":97.3694,"RA_OF_ASC_NODE":23.263,"ARG_OF_PERICENTER":232.1029,"MEAN_ANOMALY":127.9531,"EPHEMERIS_TYPE":0,"NORAD_CAT_ID":42838,"ELEMENT_SET_NO":999,"REV_AT_EPOCH":49371,"BSTAR":0.00050615124,"MEAN_MOTION_DOT":0.00017749,"MEAN_MOTION_DDOT":0},{"OBJECT_NAME":"LEMUR-2-MONSON","OBJECT_ID":"2017-042Q","EPOCH":"2026-07-21T00:10:45.471936","CLASSIFICATION_TYPE":"U","MEAN_MOTION":15.28852397,"ECCENTRICITY":0.00057111,"INCLINATION":97.4103,"RA_OF_ASC_NODE":22.4228,"ARG_OF_PERICENTER":221.0699,"MEAN_ANOMALY":139.0112,"EPHEMERIS_TYPE":0,"NORAD_CAT_ID":42839,"ELEMENT_SET_NO":999,"REV_AT_EPOCH":49333,"BSTAR":0.0003872085,"MEAN_MOTION_DOT":0.00010789,"MEAN_MOTION_DDOT":0},{"OBJECT_NAME":"LEMUR-2-FURIAUS","OBJECT_ID":"2017-042R","EPOCH":"2026-07-21T00:09:37.559808","CLASSIFICATION_TYPE":"U","MEAN_MOTION":15.31249211,"ECCENTRICITY":0.00056786,"INCLINATION":97.3789,"RA_OF_ASC_NODE":20.3821,"ARG_OF_PERICENTER":304.6433,"MEAN_ANOMALY":55.4272,"EPHEMERIS_TYPE":0,"NORAD_CAT_ID":42840,"ELEMENT_SET_NO":999,"REV_AT_EPOCH":49338,"BSTAR":0.00040767871,"MEAN_MOTION_DOT":0.0001224,"MEAN_MOTION_DDOT":0},{"OBJECT_NAME":"LEMUR-2-PETERG","OBJECT_ID":"2017-042S","EPOCH":"2026-07-21T11:08:21.413472","CLASSIFICATION_TYPE":"U","MEAN_MOTION":15.35181644,"ECCENTRICITY":0.00037982,"INCLINATION":97.4006,"RA_OF_ASC_NODE":27.5861,"ARG_OF_PERICENTER":194.2666,"MEAN_ANOMALY":165.8471,"EPHEMERIS_TYPE":0,"NORAD_CAT_ID":42841,"ELEMENT_SET_NO":999,"REV_AT_EPOCH":49369,"BSTAR":0.00047412537,"MEAN_MOTION_DOT":0.00016129,"MEAN_MOTION_DDOT":0},{"OBJECT_NAME":"LEMUR-2-DEMBITZ","OBJECT_ID":"2017-042T","EPOCH":"2026-07-21T00:38:11.677920","CLASSIFICATION_TYPE":"U","MEAN_MOTION":15.3122102,"ECCENTRICITY":0.00052315,"INCLINATION":97.3839,"RA_OF_ASC_NODE":23.4497,"ARG_OF_PERICENTER":247.5353,"MEAN_ANOMALY":112.5335,"EPHEMERIS_TYPE":0,"NORAD_CAT_ID":42842,"ELEMENT_SET_NO":999,"REV_AT_EPOCH":49352,"BSTAR":0.00037611491,"MEAN_MOTION_DOT":0.00011274,"MEAN_MOTION_DDOT":0},{"OBJECT_NAME":"LEMUR-2-ZACHARY","OBJECT_ID":"2017-042W","EPOCH":"2026-07-21T11:54:13.780512","CLASSIFICATION_TYPE":"U","MEAN_MOTION":15.53139299,"ECCENTRICITY":0.00029959,"INCLINATION":97.3581,"RA_OF_ASC_NODE":34.9343,"ARG_OF_PERICENTER":217.984,"MEAN_ANOMALY":142.1203,"EPHEMERIS_TYPE":0,"NORAD_CAT_ID":42845,"ELEMENT_SET_NO":999,"REV_AT_EPOCH":49452,"BSTAR":0.00078615661,"MEAN_MOTION_DOT":0.00049406,"MEAN_MOTION_DDOT":0},{"OBJECT_NAME":"LEMUR-2-AMANDA-SVANTE","OBJECT_ID":"2021-034B","EPOCH":"2026-07-21T15:20:36.811680","CLASSIFICATION_TYPE":"U","MEAN_MOTION":15.36228653,"ECCENTRICITY":0.0004761,"INCLINATION":97.574,"RA_OF_ASC_NODE":281.8819,"ARG_OF_PERICENTER":129.5965,"MEAN_ANOMALY":230.5699,"EPHEMERIS_TYPE":0,"NORAD_CAT_ID":48269,"ELEMENT_SET_NO":999,"REV_AT_EPOCH":28634,"BSTAR":0.00094117612,"MEAN_MOTION_DOT":0.00033264,"MEAN_MOTION_DDOT":0},{"OBJECT_NAME":"LEMUR-2-SPECIAL-K","OBJECT_ID":"2021-034F","EPOCH":"2026-07-21T05:44:15.500256","CLASSIFICATION_TYPE":"U","MEAN_MOTION":15.77027455,"ECCENTRICITY":0.00061092,"INCLINATION":97.5626,"RA_OF_ASC_NODE":291.8762,"ARG_OF_PERICENTER":210.798,"MEAN_ANOMALY":149.2928,"EPHEMERIS_TYPE":0,"NORAD_CAT_ID":48273,"ELEMENT_SET_NO":999,"REV_AT_EPOCH":28703,"BSTAR":0.0015263248,"MEAN_MOTION_DOT":0.00254191,"MEAN_MOTION_DDOT":0},{"OBJECT_NAME":"LEMUR-2-EMBRIONOVIS","OBJECT_ID":"2023-084AQ","EPOCH":"2026-07-21T08:37:58.602720","CLASSIFICATION_TYPE":"U","MEAN_MOTION":15.38334823,"ECCENTRICITY":0.00088061,"INCLINATION":97.6331,"RA_OF_ASC_NODE":347.8997,"ARG_OF_PERICENTER":183.9306,"MEAN_ANOMALY":176.1871,"EPHEMERIS_TYPE":0,"NORAD_CAT_ID":56970,"ELEMENT_SET_NO":999,"REV_AT_EPOCH":17293,"BSTAR":0.00029060526,"MEAN_MOTION_DOT":0.0001091,"MEAN_MOTION_DDOT":0},{"OBJECT_NAME":"LEMUR-2-DEVERILL-M-T","OBJECT_ID":"2023-100F","EPOCH":"2026-07-21T09:34:08.480928","CLASSIFICATION_TYPE":"U","MEAN_MOTION":15.4129141,"ECCENTRICITY":0.00048301,"INCLINATION":99.4447,"RA_OF_ASC_NODE":251.0826,"ARG_OF_PERICENTER":270.9536,"MEAN_ANOMALY":89.1151,"EPHEMERIS_TYPE":0,"NORAD_CAT_ID":57391,"ELEMENT_SET_NO":999,"REV_AT_EPOCH":16651,"BSTAR":0.00049589374,"MEAN_MOTION_DOT":0.00020567,"MEAN_MOTION_DDOT":0},{"OBJECT_NAME":"LEMUR-2-BASS","OBJECT_ID":"2023-174D","EPOCH":"2026-07-21T05:49:36.604128","CLASSIFICATION_TYPE":"U","MEAN_MOTION":15.44124123,"ECCENTRICITY":0.00072277,"INCLINATION":97.3836,"RA_OF_ASC_NODE":287.4557,"ARG_OF_PERICENTER":60.0029,"MEAN_ANOMALY":300.1936,"EPHEMERIS_TYPE":0,"NORAD_CAT_ID":58259,"ELEMENT_SET_NO":999,"REV_AT_EPOCH":15061,"BSTAR":0.00029089667,"MEAN_MOTION_DOT":0.00013243,"MEAN_MOTION_DDOT":0},{"OBJECT_NAME":"LEMUR-2-JK0903EM1407","OBJECT_ID":"2023-174CJ","EPOCH":"2026-07-21T11:55:55.858656","CLASSIFICATION_TYPE":"U","MEAN_MOTION":15.53295497,"ECCENTRICITY":0.00030024,"INCLINATION":97.3916,"RA_OF_ASC_NODE":293.9761,"ARG_OF_PERICENTER":6.747,"MEAN_ANOMALY":353.3823,"EPHEMERIS_TYPE":0,"NORAD_CAT_ID":58336,"ELEMENT_SET_NO":999,"REV_AT_EPOCH":15105,"BSTAR":0.00041647228,"MEAN_MOTION_DOT":0.00026198,"MEAN_MOTION_DDOT":0},{"OBJECT_NAME":"LEMUR-2-MJR092620","OBJECT_ID":"2023-174CN","EPOCH":"2026-07-21T09:50:08.635488","CLASSIFICATION_TYPE":"U","MEAN_MOTION":15.46011516,"ECCENTRICITY":0.00047139,"INCLINATION":97.3965,"RA_OF_ASC_NODE":293.0976,"ARG_OF_PERICENTER":7.11,"MEAN_ANOMALY":353.0215,"EPHEMERIS_TYPE":0,"NORAD_CAT_ID":58340,"ELEMENT_SET_NO":999,"REV_AT_EPOCH":15093,"BSTAR":0.00032577426,"MEAN_MOTION_DOT":0.00015823,"MEAN_MOTION_DDOT":0},{"OBJECT_NAME":"LEMUR-2-NIMBUS2000","OBJECT_ID":"2024-022A","EPOCH":"2026-07-21T02:41:11.552064","CLASSIFICATION_TYPE":"U","MEAN_MOTION":15.41275158,"ECCENTRICITY":0.00081161,"INCLINATION":97.4083,"RA_OF_ASC_NODE":52.566,"ARG_OF_PERICENTER":7.9726,"MEAN_ANOMALY":352.1648,"EPHEMERIS_TYPE":0,"NORAD_CAT_ID":58899,"ELEMENT_SET_NO":999,"REV_AT_EPOCH":13749,"BSTAR":0.00040331239,"MEAN_MOTION_DOT":0.0001673,"MEAN_MOTION_DDOT":0}]}
